2025-08-06 19:39:09,177 - src.constellation.constellation_manager - INFO - âœ… å«æ˜Ÿåˆ›å»ºæˆåŠŸ: Satellite08 (è½¨é“é¢1, ä½ç½®8)
2025-08-06 19:39:09,256 - src.stk_interface.stk_manager - INFO - ğŸ›°ï¸ åˆ›å»ºå«æ˜Ÿå¯¹è±¡: Satellite09
2025-08-06 19:39:11,286 - src.stk_interface.stk_manager - INFO - âœ… ä¼ æ’­å™¨ç±»å‹è®¾ç½®æˆåŠŸ
2025-08-06 19:39:11,286 - src.stk_interface.stk_manager - INFO - âœ… å‚æ•° semi_axis = 8171.0 éªŒè¯é€šè¿‡
2025-08-06 19:39:11,286 - src.stk_interface.stk_manager - INFO - âœ… å‚æ•° eccentricity = 0.0 éªŒè¯é€šè¿‡
2025-08-06 19:39:11,286 - src.stk_interface.stk_manager - INFO - âœ… å‚æ•° inclination = 51.856 éªŒè¯é€šè¿‡
2025-08-06 19:39:11,287 - src.stk_interface.stk_manager - INFO - âœ… å‚æ•° raan = 120.0 éªŒè¯é€šè¿‡
2025-08-06 19:39:11,287 - src.stk_interface.stk_manager - INFO - âœ… å‚æ•° arg_of_perigee = 0.0 éªŒè¯é€šè¿‡
2025-08-06 19:39:11,287 - src.stk_interface.stk_manager - INFO - âœ… å‚æ•° mean_anomaly = 15.0 éªŒè¯é€šè¿‡
2025-08-06 19:39:11,287 - src.stk_interface.stk_manager - INFO - ğŸ”„ ä½¿ç”¨Kepleriané«˜åº¦æ–¹æ³•...
2025-08-06 19:39:11,630 - src.stk_interface.stk_manager - INFO - âœ… Kepleriané«˜åº¦æ–¹æ³•æˆåŠŸ
2025-08-06 19:39:11,755 - src.stk_interface.stk_manager - INFO - âœ… åœ°é¢è½¨è¿¹é…ç½®æˆåŠŸ
2025-08-06 19:39:11,763 - src.stk_interface.stk_manager - INFO - âœ… å«æ˜Ÿåˆ›å»ºæˆåŠŸ: Satellite09
2025-08-06 19:39:11,884 - src.stk_interface.stk_manager - INFO - ğŸ”­ åˆ›å»ºä¼ æ„Ÿå™¨: Satellite09_Payload
2025-08-06 19:39:12,906 - src.stk_interface.stk_manager - INFO - âœ“ ä¼ æ„Ÿå™¨æ¨¡å¼è®¾ç½®ä¸ºåœ†é”¥
2025-08-06 19:39:13,126 - src.stk_interface.stk_manager - INFO - âœ“ è·å–Patternå¯¹è±¡æˆåŠŸï¼Œç±»å‹: <class 'win32com.client.CDispatch'>
2025-08-06 19:39:13,141 - src.stk_interface.stk_manager - INFO - âœ“ è®¾ç½®å¤–é”¥è§’æˆåŠŸ: 90.0Â°
2025-08-06 19:39:13,157 - src.stk_interface.stk_manager - INFO - âœ“ è®¾ç½®å†…é”¥è§’æˆåŠŸ: 66.0Â°
2025-08-06 19:39:13,184 - src.stk_interface.stk_manager - WARNING - âš ï¸ è®¾ç½®åœ†é”¥å‚æ•°å¤±è´¥: (-2147352567, 'å‘ç”Ÿæ„å¤–ã€‚', (0, None, 'Value 1.04719755 rad is invalid. Value range is 5.23598776 rad to 6.28318531 rad', None, 0, -2147220989), None)
2025-08-06 19:39:13,192 - src.stk_interface.stk_manager - INFO - âœ“ å•ç‹¬è®¾ç½®å¤–é”¥è§’æˆåŠŸ: 90.0Â°
2025-08-06 19:39:13,195 - src.stk_interface.stk_manager - INFO - âœ… åœ†é”¥è§†åœºé…ç½®æˆåŠŸ
2025-08-06 19:39:13,256 - src.stk_interface.stk_manager - INFO - âœ… æŒ‡å‘å‚æ•°é…ç½®æˆåŠŸ
2025-08-06 19:39:13,845 - src.stk_interface.stk_manager - INFO - âœ“ è·ç¦»çº¦æŸè®¾ç½®æˆåŠŸ: 0-5000km
2025-08-06 19:39:13,848 - src.stk_interface.stk_manager - INFO - âœ… çº¦æŸå‚æ•°é…ç½®æˆåŠŸ
2025-08-06 19:39:13,848 - src.stk_interface.stk_manager - INFO - âœ… ä¼ æ„Ÿå™¨åˆ›å»ºæˆåŠŸ: Satellite09_Payload
2025-08-06 19:39:13,851 - src.constellation.constellation_manager - INFO - âœ… å«æ˜Ÿåˆ›å»ºæˆåŠŸ: Satellite09 (è½¨é“é¢2, ä½ç½®1)
2025-08-06 19:39:13,911 - src.stk_interface.stk_manager - INFO - ğŸ›°ï¸ åˆ›å»ºå«æ˜Ÿå¯¹è±¡: Satellite10
2025-08-06 19:39:15,941 - src.stk_interface.stk_manager - INFO - âœ… ä¼ æ’­å™¨ç±»å‹è®¾ç½®æˆåŠŸ
2025-08-06 19:39:15,941 - src.stk_interface.stk_manager - INFO - âœ… å‚æ•° semi_axis = 8171.0 éªŒè¯é€šè¿‡
2025-08-06 19:39:15,941 - src.stk_interface.stk_manager - INFO - âœ… å‚æ•° eccentricity = 0.0 éªŒè¯é€šè¿‡
2025-08-06 19:39:15,941 - src.stk_interface.stk_manager - INFO - âœ… å‚æ•° inclination = 51.856 éªŒè¯é€šè¿‡
2025-08-06 19:39:15,942 - src.stk_interface.stk_manager - INFO - âœ… å‚æ•° raan = 120.0 éªŒè¯é€šè¿‡
2025-08-06 19:39:15,942 - src.stk_interface.stk_manager - INFO - âœ… å‚æ•° arg_of_perigee = 0.0 éªŒè¯é€šè¿‡
2025-08-06 19:39:15,942 - src.stk_interface.stk_manager - INFO - âœ… å‚æ•° mean_anomaly = 60.0 éªŒè¯é€šè¿‡
2025-08-06 19:39:15,942 - src.stk_interface.stk_manager - INFO - ğŸ”„ ä½¿ç”¨Kepleriané«˜åº¦æ–¹æ³•...
2025-08-06 19:39:16,367 - src.stk_interface.stk_manager - INFO - âœ… Kepleriané«˜åº¦æ–¹æ³•æˆåŠŸ
2025-08-06 19:39:16,502 - src.stk_interface.stk_manager - INFO - âœ… åœ°é¢è½¨è¿¹é…ç½®æˆåŠŸ
2025-08-06 19:39:16,513 - src.stk_interface.stk_manager - INFO - âœ… å«æ˜Ÿåˆ›å»ºæˆåŠŸ: Satellite10
2025-08-06 19:39:16,660 - src.stk_interface.stk_manager - INFO - ğŸ”­ åˆ›å»ºä¼ æ„Ÿå™¨: Satellite10_Payload
2025-08-06 19:39:17,673 - src.stk_interface.stk_manager - INFO - âœ“ ä¼ æ„Ÿå™¨æ¨¡å¼è®¾ç½®ä¸ºåœ†é”¥
2025-08-06 19:39:17,880 - src.stk_interface.stk_manager - INFO - âœ“ è·å–Patternå¯¹è±¡æˆåŠŸï¼Œç±»å‹: <class 'win32com.client.CDispatch'>
2025-08-06 19:39:17,893 - src.stk_interface.stk_manager - INFO - âœ“ è®¾ç½®å¤–é”¥è§’æˆåŠŸ: 90.0Â°
2025-08-06 19:39:17,911 - src.stk_interface.stk_manager - INFO - âœ“ è®¾ç½®å†…é”¥è§’æˆåŠŸ: 66.0Â°
2025-08-06 19:39:17,934 - src.stk_interface.stk_manager - WARNING - âš ï¸ è®¾ç½®åœ†é”¥å‚æ•°å¤±è´¥: (-2147352567, 'å‘ç”Ÿæ„å¤–ã€‚', (0, None, 'Value 1.04719755 rad is invalid. Value range is 5.23598776 rad to 6.28318531 rad', None, 0, -2147220989), None)
2025-08-06 19:39:17,943 - src.stk_interface.stk_manager - INFO - âœ“ å•ç‹¬è®¾ç½®å¤–é”¥è§’æˆåŠŸ: 90.0Â°
2025-08-06 19:39:17,951 - src.stk_interface.stk_manager - INFO - âœ… åœ†é”¥è§†åœºé…ç½®æˆåŠŸ
2025-08-06 19:39:18,007 - src.stk_interface.stk_manager - INFO - âœ… æŒ‡å‘å‚æ•°é…ç½®æˆåŠŸ
2025-08-06 19:39:18,614 - src.stk_interface.stk_manager - INFO - âœ“ è·ç¦»çº¦æŸè®¾ç½®æˆåŠŸ: 0-5000km
2025-08-06 19:39:18,618 - src.stk_interface.stk_manager - INFO - âœ… çº¦æŸå‚æ•°é…ç½®æˆåŠŸ
2025-08-06 19:39:18,619 - src.stk_interface.stk_manager - INFO - âœ… ä¼ æ„Ÿå™¨åˆ›å»ºæˆåŠŸ: Satellite10_Payload
2025-08-06 19:39:18,622 - src.constellation.constellation_manager - INFO - âœ… å«æ˜Ÿåˆ›å»ºæˆåŠŸ: Satellite10 (è½¨é“é¢2, ä½ç½®2)
2025-08-06 19:39:18,680 - src.stk_interface.stk_manager - INFO - ğŸ›°ï¸ åˆ›å»ºå«æ˜Ÿå¯¹è±¡: Satellite11
2025-08-06 19:39:20,713 - src.stk_interface.stk_manager - INFO - âœ… ä¼ æ’­å™¨ç±»å‹è®¾ç½®æˆåŠŸ
2025-08-06 19:39:20,713 - src.stk_interface.stk_manager - INFO - âœ… å‚æ•° semi_axis = 8171.0 éªŒè¯é€šè¿‡
2025-08-06 19:39:20,713 - src.stk_interface.stk_manager - INFO - âœ… å‚æ•° eccentricity = 0.0 éªŒè¯é€šè¿‡
2025-08-06 19:39:20,713 - src.stk_interface.stk_manager - INFO - âœ… å‚æ•° inclination = 51.856 éªŒè¯é€šè¿‡
2025-08-06 19:39:20,713 - src.stk_interface.stk_manager - INFO - âœ… å‚æ•° raan = 120.0 éªŒè¯é€šè¿‡
2025-08-06 19:39:20,714 - src.stk_interface.stk_manager - INFO - âœ… å‚æ•° arg_of_perigee = 0.0 éªŒè¯é€šè¿‡
2025-08-06 19:39:20,714 - src.stk_interface.stk_manager - INFO - âœ… å‚æ•° mean_anomaly = 105.0 éªŒè¯é€šè¿‡
2025-08-06 19:39:20,714 - src.stk_interface.stk_manager - INFO - ğŸ”„ ä½¿ç”¨Kepleriané«˜åº¦æ–¹æ³•...
2025-08-06 19:39:21,035 - src.stk_interface.stk_manager - INFO - âœ… Kepleriané«˜åº¦æ–¹æ³•æˆåŠŸ
2025-08-06 19:39:21,130 - src.stk_interface.stk_manager - INFO - âœ… åœ°é¢è½¨è¿¹é…ç½®æˆåŠŸ
2025-08-06 19:39:21,135 - src.stk_interface.stk_manager - INFO - âœ… å«æ˜Ÿåˆ›å»ºæˆåŠŸ: Satellite11
2025-08-06 19:39:21,243 - src.stk_interface.stk_manager - INFO - ğŸ”­ åˆ›å»ºä¼ æ„Ÿå™¨: Satellite11_Payload
2025-08-06 19:39:22,259 - src.stk_interface.stk_manager - INFO - âœ“ ä¼ æ„Ÿå™¨æ¨¡å¼è®¾ç½®ä¸ºåœ†é”¥
2025-08-06 19:39:22,477 - src.stk_interface.stk_manager - INFO - âœ“ è·å–Patternå¯¹è±¡æˆåŠŸï¼Œç±»å‹: <class 'win32com.client.CDispatch'>
2025-08-06 19:39:22,501 - src.stk_interface.stk_manager - INFO - âœ“ è®¾ç½®å¤–é”¥è§’æˆåŠŸ: 90.0Â°
2025-08-06 19:39:22,526 - src.stk_interface.stk_manager - INFO - âœ“ è®¾ç½®å†…é”¥è§’æˆåŠŸ: 66.0Â°
2025-08-06 19:39:22,557 - src.stk_interface.stk_manager - WARNING - âš ï¸ è®¾ç½®åœ†é”¥å‚æ•°å¤±è´¥: (-2147352567, 'å‘ç”Ÿæ„å¤–ã€‚', (0, None, 'Value 1.04719755 rad is invalid. Value range is 5.23598776 rad to 6.28318531 rad', None, 0, -2147220989), None)
2025-08-06 19:39:22,570 - src.stk_interface.stk_manager - INFO - âœ“ å•ç‹¬è®¾ç½®å¤–é”¥è§’æˆåŠŸ: 90.0Â°
2025-08-06 19:39:22,573 - src.stk_interface.stk_manager - INFO - âœ… åœ†é”¥è§†åœºé…ç½®æˆåŠŸ
2025-08-06 19:39:22,633 - src.stk_interface.stk_manager - INFO - âœ… æŒ‡å‘å‚æ•°é…ç½®æˆåŠŸ
2025-08-06 19:39:23,245 - src.stk_interface.stk_manager - INFO - âœ“ è·ç¦»çº¦æŸè®¾ç½®æˆåŠŸ: 0-5000km
2025-08-06 19:39:23,250 - src.stk_interface.stk_manager - INFO - âœ… çº¦æŸå‚æ•°é…ç½®æˆåŠŸ
2025-08-06 19:39:23,250 - src.stk_interface.stk_manager - INFO - âœ… ä¼ æ„Ÿå™¨åˆ›å»ºæˆåŠŸ: Satellite11_Payload
2025-08-06 19:39:23,254 - src.constellation.constellation_manager - INFO - âœ… å«æ˜Ÿåˆ›å»ºæˆåŠŸ: Satellite11 (è½¨é“é¢2, ä½ç½®3)
2025-08-06 19:39:23,328 - src.stk_interface.stk_manager - INFO - ğŸ›°ï¸ åˆ›å»ºå«æ˜Ÿå¯¹è±¡: Satellite12
2025-08-06 19:39:25,360 - src.stk_interface.stk_manager - INFO - âœ… ä¼ æ’­å™¨ç±»å‹è®¾ç½®æˆåŠŸ
2025-08-06 19:39:25,360 - src.stk_interface.stk_manager - INFO - âœ… å‚æ•° semi_axis = 8171.0 éªŒè¯é€šè¿‡
2025-08-06 19:39:25,360 - src.stk_interface.stk_manager - INFO - âœ… å‚æ•° eccentricity = 0.0 éªŒè¯é€šè¿‡
2025-08-06 19:39:25,361 - src.stk_interface.stk_manager - INFO - âœ… å‚æ•° inclination = 51.856 éªŒè¯é€šè¿‡
2025-08-06 19:39:25,361 - src.stk_interface.stk_manager - INFO - âœ… å‚æ•° raan = 120.0 éªŒè¯é€šè¿‡
2025-08-06 19:39:25,361 - src.stk_interface.stk_manager - INFO - âœ… å‚æ•° arg_of_perigee = 0.0 éªŒè¯é€šè¿‡
2025-08-06 19:39:25,361 - src.stk_interface.stk_manager - INFO - âœ… å‚æ•° mean_anomaly = 150.0 éªŒè¯é€šè¿‡
2025-08-06 19:39:25,362 - src.stk_interface.stk_manager - INFO - ğŸ”„ ä½¿ç”¨Kepleriané«˜åº¦æ–¹æ³•...
2025-08-06 19:39:25,693 - src.stk_interface.stk_manager - INFO - âœ… Kepleriané«˜åº¦æ–¹æ³•æˆåŠŸ
2025-08-06 19:39:25,836 - src.stk_interface.stk_manager - INFO - âœ… åœ°é¢è½¨è¿¹é…ç½®æˆåŠŸ
2025-08-06 19:39:25,849 - src.stk_interface.stk_manager - INFO - âœ… å«æ˜Ÿåˆ›å»ºæˆåŠŸ: Satellite12
2025-08-06 19:39:25,984 - src.stk_interface.stk_manager - INFO - ğŸ”­ åˆ›å»ºä¼ æ„Ÿå™¨: Satellite12_Payload
2025-08-06 19:39:26,995 - src.stk_interface.stk_manager - INFO - âœ“ ä¼ æ„Ÿå™¨æ¨¡å¼è®¾ç½®ä¸ºåœ†é”¥
2025-08-06 19:39:27,211 - src.stk_interface.stk_manager - INFO - âœ“ è·å–Patternå¯¹è±¡æˆåŠŸï¼Œç±»å‹: <class 'win32com.client.CDispatch'>
2025-08-06 19:39:27,224 - src.stk_interface.stk_manager - INFO - âœ“ è®¾ç½®å¤–é”¥è§’æˆåŠŸ: 90.0Â°
